{"generatedAt":"2026-04-23T08:04:48.693867Z","satellites":[{"name":"STARLINK-36492","tle1":"1 67332U 26002AD  26112.94983778  .00012328  00000+0  45676-3 0  9994","tle2":"2 67332  43.0026  75.6751 0001249 253.1181 106.9534 15.27581044 18000"},{"name":"STARLINK-36427","tle1":"1 67333U 26002AE  26112.92670852  .00010524  00000+0  39124-3 0  9996","tle2":"2 67333  42.9981  75.4862 0000297  13.2522 346.8337 15.27593978 17909"},{"name":"STARLINK-35343","tle1":"1 67334U 26003A   26112.89278022  .00014297  00000+0  52791-3 0  9993","tle2":"2 67334  43.0021 337.4764 0001605 238.5770 121.4925 15.27589721 15583"},{"name":"STARLINK-36486","tle1":"1 67335U 26003B   26112.02091150  .00017632  00000+0  64835-3 0  9992","tle2":"2 67335  43.0069 342.1136 0002228 257.8803 102.1799 15.27598841 15459"},{"name":"STARLINK-36480","tle1":"1 67336U 26003C   26112.90049553  .00020615  00000+0  75619-3 0  9997","tle2":"2 67336  42.9986 337.5367 0001178 249.9706 110.1019 15.27596148 15583"},{"name":"STARLINK-36410","tle1":"1 67337U 26003D   26112.91848616  .00007481  00000+0  28106-3 0  9991","tle2":"2 67337  43.0020 337.6780 0001217 261.4557  98.6157 15.27582403 15584"},{"name":"STARLINK-36413","tle1":"1 67338U 26003E   26112.91077418  .00016991  00000+0  62533-3 0  9994","tle2":"2 67338  43.0033 337.6201 0001604 265.6676  94.3992 15.27589996 15589"},{"name":"STARLINK-36451","tle1":"1 67339U 26003F   26112.04661242  .00020347  00000+0  74609-3 0  9990","tle2":"2 67339  43.0025 342.3076 0001598 274.6979  85.3690 15.27614056 15459"},{"name":"STARLINK-36339","tle1":"1 67340U 26003G   26112.95431932  .00022070  00000+0  80909-3 0  9998","tle2":"2 67340  43.0046 337.0805 0001779 269.0171  91.0477 15.27581781 15598"},{"name":"STARLINK-36453","tle1":"1 67341U 26003H   26112.88507766  .00019632  00000+0  72086-3 0  9997","tle2":"2 67341  43.0048 337.4159 0001274 218.1134 141.9628 15.27588891 15582"},{"name":"STARLINK-36432","tle1":"1 67342U 26003J   26112.92861748  .00011567  00000+0  42913-3 0  9991","tle2":"2 67342  43.0090 336.8820 0001440 311.8422  48.2307 15.27584526 15599"},{"name":"STARLINK-36458","tle1":"1 67343U 26003K   26112.02861834  .00018488  00000+0  67903-3 0  9994","tle2":"2 67343  43.0092 342.1664 0002090 248.0839 111.9790 15.27610627 15454"},{"name":"STARLINK-36422","tle1":"1 67344U 26003L   26112.01707133  .00008750  00000+0  32704-3 0  9997","tle2":"2 67344  42.9982 342.0854 0001898  30.2617 329.8344 15.27587056 15455"},{"name":"STARLINK-35676","tle1":"1 67345U 26003M   26111.95938091  .00013540  00000+0  50021-3 0  9994","tle2":"2 67345  43.0055 342.5080 0001357 253.8818 106.1884 15.27609776 15449"},{"name":"STARLINK-36472","tle1":"1 67346U 26003N   26112.90820266  .00004241  00000+0  16354-3 0  9994","tle2":"2 67346  43.0011 337.5972 0001316 261.0233  99.0469 15.27584416 15579"},{"name":"STARLINK-36420","tle1":"1 67347U 26003P   26112.89793045  .00015622  00000+0  57559-3 0  9994","tle2":"2 67347  43.0019 337.5124 0001530 267.0660  93.0017 15.27604074 15582"},{"name":"STARLINK-36467","tle1":"1 67348U 26003Q   26111.92097225  .00015445  00000+0  56897-3 0  9992","tle2":"2 67348  43.0012 343.0803 0001536 260.1017  99.9661 15.27617172 15435"},{"name":"STARLINK-36457","tle1":"1 67349U 26003R   26112.95174889  .00022945  00000+0  84041-3 0  9994","tle2":"2 67349  43.0046 337.0603 0002024 271.5830  88.4790 15.27592835 15597"},{"name":"STARLINK-36475","tle1":"1 67350U 26003S   26112.02218297  .00056050  00000+0  20249-2 0  9999","tle2":"2 67350  43.0043 342.1186 0003427 252.9355 107.1121 15.27673977 15451"},{"name":"STARLINK-36478","tle1":"1 67351U 26003T   26112.92990371  .00024658  00000+0  90195-3 0  9996","tle2":"2 67351  43.0089 336.8904 0001168 302.8068  57.2672 15.27603225 15596"},{"name":"STARLINK-36479","tle1":"1 67352U 26003U   26112.00806321  .00014273  00000+0  52675-3 0  9990","tle2":"2 67352  43.0045 342.0128 0001412 290.0580  70.0119 15.27606828 15451"},{"name":"STARLINK-36474","tle1":"1 67353U 26003V   26112.91977088  .00011170  00000+0  41481-3 0  9996","tle2":"2 67353  43.0028 337.6820 0002026 289.5020  70.5613 15.27580701 15585"},{"name":"STARLINK-36448","tle1":"1 67354U 26003W   26112.89406643  .00010117  00000+0  37642-3 0  9992","tle2":"2 67354  43.0026 337.4828 0001498 252.4798 107.5890 15.27599847 15582"},{"name":"STARLINK-36477","tle1":"1 67355U 26003X   26112.91592352  .00023911  00000+0  87450-3 0  9997","tle2":"2 67355  43.0028 337.6555 0001357 259.1368 100.9331 15.27621448 15585"},{"name":"STARLINK-36429","tle1":"1 67356U 26003Y   26112.91206134  .00011932  00000+0  44234-3 0  9991","tle2":"2 67356  43.0005 337.6256 0001662 274.2903  85.7758 15.27585833 15581"},{"name":"STARLINK-36456","tle1":"1 67357U 26003Z   26112.89021303  .00024064  00000+0  88098-3 0  9998","tle2":"2 67357  43.0064 337.4538 0003234 258.7514 101.2974 15.27582788 15580"},{"name":"STARLINK-36466","tle1":"1 67358U 26003AA  26112.67221044  .00004340  00000+0  16710-3 0  9996","tle2":"2 67358  43.0041 338.3954 0002033 334.7771  25.2981 15.27589712 15558"},{"name":"STARLINK-36499","tle1":"1 67359U 26003AB  26112.92105577  .00003287  00000+0  12891-3 0  9992","tle2":"2 67359  43.0039 337.6916 0001381 278.4778  81.5917 15.27580938 15580"},{"name":"STARLINK-36469","tle1":"1 67360U 26003AC  26112.91719918  .00019857  00000+0  72904-3 0  9994","tle2":"2 67360  43.0016 337.6620 0001424 291.4185  68.6514 15.27585952 15584"},{"name":"STARLINK-35306","tle1":"1 67361U 26003AD  26111.90299168  .00027070  00000+0  98890-3 0  9991","tle2":"2 67361  43.0089 342.9392 0002298 238.2402 121.8226 15.27603917 15439"},{"name":"STARLINK-36428","tle1":"1 67362U 26003AE  26111.96580977  .00028068  00000+0  10245-2 0  9994","tle2":"2 67362  43.0037 342.5516 0001157 213.0741 147.0039 15.27615704 15447"},{"name":"STARLINK-36484","tle1":"1 67404U 26005A   26112.91573194  .00014735  00000+0  54397-3 0  9995","tle2":"2 67404  43.0045 347.9311 0001465 250.7170 109.3523 15.27575439 15462"},{"name":"STARLINK-36452","tle1":"1 67405U 26005B   26111.40670622  .00027615  00000+0  10091-2 0  9996","tle2":"2 67405  43.0068 356.3767 0001521 225.8346 134.2381 15.27586670 15231"},{"name":"STARLINK-36409","tle1":"1 67406U 26005C   26112.94785431  .00022994  00000+0  84232-3 0  9996","tle2":"2 67406  43.0020 348.1745 0001416 265.2291  94.8399 15.27586765 15465"},{"name":"STARLINK-36510","tle1":"1 67407U 26005D   26112.94142649  .00010053  00000+0  37424-3 0  9999","tle2":"2 67407  42.9997 348.1172 0001165 275.7354  84.3365 15.27588243 15468"},{"name":"STARLINK-36509","tle1":"1 67408U 26005E   26112.92601166  .00015680  00000+0  57802-3 0  9995","tle2":"2 67408  43.0008 348.0051 0001619 265.2067  94.8600 15.27584212 15457"},{"name":"STARLINK-36507","tle1":"1 67409U 26005F   26112.95556179  .00009609  00000+0  35795-3 0  9993","tle2":"2 67409  43.0046 348.2274 0005854 285.4637  74.5568 15.27597491 15463"},{"name":"STARLINK-36508","tle1":"1 67410U 26005G   26111.98504787  .00015606  00000+0  57517-3 0  9995","tle2":"2 67410  43.0054 353.8521 0001076 265.6566  94.4163 15.27595473 15318"},{"name":"STARLINK-36503","tle1":"1 67411U 26005H   26112.92986313  .00024745  00000+0  90530-3 0  9996","tle2":"2 67411  43.0012 348.0277 0001793 250.9497 109.1161 15.27594458 15463"},{"name":"STARLINK-36446","tle1":"1 67412U 26005J   26112.93629282  .00016993  00000+0  62541-3 0  9994","tle2":"2 67412  42.9954 348.0830 0001067 267.5174  92.5556 15.27590132 15460"},{"name":"STARLINK-36442","tle1":"1 67413U 26005K   26112.91829513  .00015442  00000+0  56929-3 0  9993","tle2":"2 67413  43.0037 347.9446 0000868 220.1492 139.9296 15.27592135 15464"},{"name":"STARLINK-36506","tle1":"1 67414U 26005L   26112.07341240  .00020074  00000+0  73632-3 0  9994","tle2":"2 67414  43.0031 352.7780 0002163 260.6980  99.3627 15.27610125 15338"},{"name":"STARLINK-36468","tle1":"1 67415U 26005M   26112.04785922  .00013285  00000+0  49110-3 0  9991","tle2":"2 67415  43.0032 353.4568 0001211 272.8427  87.2286 15.27602045 15324"},{"name":"STARLINK-36487","tle1":"1 67416U 26005N   26112.95813530  .00018382  00000+0  67565-3 0  9996","tle2":"2 67416  43.0041 348.2531 0000735 291.0670  69.0103 15.27590744 15463"},{"name":"STARLINK-36374","tle1":"1 67417U 26005P   26112.94528366  .00019740  00000+0  72480-3 0  9997","tle2":"2 67417  43.0041 348.1504 0001502 271.0694  88.9986 15.27587291 15462"},{"name":"STARLINK-36455","tle1":"1 67418U 26005Q   26112.08754428  .00019170  00000+0  70375-3 0  9991","tle2":"2 67418  43.0017 352.8888 0001380 278.3419  81.7276 15.27607213 15338"},{"name":"STARLINK-36424","tle1":"1 67419U 26005R   26112.92215183  .00016809  00000+0  61877-3 0  9998","tle2":"2 67419  43.0032 347.9719 0000898 213.4886 146.5909 15.27591097 15464"},{"name":"STARLINK-35564","tle1":"1 67420U 26005S   26112.94271240  .00017611  00000+0  64781-3 0  9997","tle2":"2 67420  43.0070 348.1256 0000513 234.1390 125.9414 15.27588361 15463"},{"name":"STARLINK-36431","tle1":"1 67421U 26005T   26112.96199066  .00018080  00000+0  66459-3 0  9990","tle2":"2 67421  43.0031 348.2806 0005226 294.4482  65.5825 15.27587746 15461"},{"name":"STARLINK-36418","tle1":"1 67422U 26005U   26112.91444698  .00013400  00000+0  49538-3 0  9990","tle2":"2 67422  43.0082 347.9158 0005534 273.2515  86.7704 15.27584285 15464"},{"name":"STARLINK-36465","tle1":"1 67423U 26005V   26112.95428113  .00013458  00000+0  49761-3 0  9990","tle2":"2 67423  43.0029 348.2205 0001122 292.3011  67.7722 15.27585580 15463"},{"name":"STARLINK-36362","tle1":"1 67424U 26005W   26112.94014137  .00015065  00000+0  55562-3 0  9999","tle2":"2 67424  43.0010 348.1089 0000875 248.6403 111.4355 15.27593935 15468"},{"name":"STARLINK-36447","tle1":"1 67425U 26005X   26112.93243905  .00021660  00000+0  79414-3 0  9996","tle2":"2 67425  43.0020 348.0543 0001533 246.8485 113.2205 15.27586519 15460"},{"name":"STARLINK-36146","tle1":"1 67426U 26005Y   26112.05171764  .00017792  00000+0  65405-3 0  9999","tle2":"2 67426  43.0054 353.4830 0001035 257.7013 102.3723 15.27604010 15317"}]}